{"type": "FeatureCollection", "features": [ {"type": "Feature", "properties": {"norad_id": 66846, "name": "STARLINK-36055", "group": "last-30-days", "lat": -68.19401032757743, "lon": 70.25130832678254, "alt_km": 389.0485716950161, "timestamp": "2025-12-17T17:50:17.974325+00:00", "meta": {"OBJECT_NAME": "STARLINK-36055", "OBJECT_ID": "2025-280AB", "EPOCH": "2025-12-17T08:00:04.999680", "MEAN_MOTION": 15.62744955, "ECCENTRICITY": 0.00035989, "INCLINATION": 69.9992, "RA_OF_ASC_NODE": 185.827, "ARG_OF_PERICENTER": 276.1378, "MEAN_ANOMALY": 201.0961, "EPHEMERIS_TYPE": 0, "CLASSIFICATION_TYPE": "U", "NORAD_CAT_ID": 66846, "ELEMENT_SET_NO": 999, "REV_AT_EPOCH": 363, "BSTAR": -0.024122663, "MEAN_MOTION_DOT": -0.01924178, "MEAN_MOTION_DDOT": 0}, "tle": {"line1": "1 66846U 25280AB  25351.33339120 -.01924178  00000+0 -24123-1 0  9993", "line2": "2 66846  69.9992 185.8270 0003598 276.1378 201.0961 15.62744955  3635"}}, "geometry": {"type": "Point", "coordinates": [70.25130832678254, -68.19401032757743]}}, {"type": "Feature", "properties": {"norad_id": 66847, "name": "STARLINK-36061", "group": "last-30-days", "lat": -68.86745768699252, "lon": 75.14775158875133, "alt_km": 389.2330525548068, "timestamp": "2025-12-17T17:50:17.974336+00:00", "meta": {"OBJECT_NAME": "STARLINK-36061", "OBJECT_ID": "2025-280AC", "EPOCH": "2025-12-17T06:00:00.999648", "MEAN_MOTION": 15.63165712, "ECCENTRICITY": 0.00037052, "INCLINATION": 69.9986, "RA_OF_ASC_NODE": 186.0573, "ARG_OF_PERICENTER": 270.7822, "MEAN_ANOMALY": 99.3443, "EPHEMERIS_TYPE": 0, "CLASSIFICATION_TYPE": "U", "NORAD_CAT_ID": 66847, "ELEMENT_SET_NO": 999, "REV_AT_EPOCH": 357, "BSTAR": -0.025032166, "MEAN_MOTION_DOT": -0.02017332, "MEAN_MOTION_DDOT": 0}, "tle": {"line1": "1 66847U 25280AC  25351.25001157 -.02017332  00000+0 -25032-1 0  9997", "line2": "2 66847  69.9986 186.0573 0003705 270.7822  99.3443 15.63165712  3577"}}, "geometry": {"type": "Point", "coordinates": [75.14775158875133, -68.86745768699252]}}, {"type": "Feature", "properties": {"norad_id": 66848, "name": "STARLINK-36091", "group": "last-30-days", "lat": -40.18970383577016, "lon": 26.57780264086192, "alt_km": 337.79450430221095, "timestamp": "2025-12-17T17:50:17.974346+00:00", "meta": {"OBJECT_NAME": "STARLINK-36091", "OBJECT_ID": "2025-281A", "EPOCH": "2025-12-17T06:00:00.999648", "MEAN_MOTION": 15.79518198, "ECCENTRICITY": 0.00014392, "INCLINATION": 43.0004, "RA_OF_ASC_NODE": 94.6197, "ARG_OF_PERICENTER": 271.7549, "MEAN_ANOMALY": 90.0818, "EPHEMERIS_TYPE": 0, "CLASSIFICATION_TYPE": "U", "NORAD_CAT_ID": 66848, "ELEMENT_SET_NO": 999, "REV_AT_EPOCH": 212, "BSTAR": -0.0074854665, "MEAN_MOTION_DOT": -0.01241974, "MEAN_MOTION_DDOT": 0}, "tle": {"line1": "1 66848U 25281A   25351.25001157 -.01241974  00000+0 -74855-2 0  9997", "line2": "2 66848  43.0004  94.6197 0001439 271.7549  90.0818 15.79518198  2128"}}, "geometry": {"type": "Point", "coordinates": [26.57780264086192, -40.18970383577016]}}, {"type": "Feature", "properties": {"norad_id": 66849, "name": "STARLINK-36102", "group": "last-30-days", "lat": -39.543864372924084, "lon": 29.22886141404835, "alt_km": 338.08699303838057, "timestamp": "2025-12-17T17:50:17.974356+00:00", "meta": {"OBJECT_NAME": "STARLINK-36102", "OBJECT_ID": "2025-281B", "EPOCH": "2025-12-17T08:00:04.999680", "MEAN_MOTION": 15.79262757, "ECCENTRICITY": 0.00011596, "INCLINATION": 43.0004, "RA_OF_ASC_NODE": 94.1054, "ARG_OF_PERICENTER": 275.2127, "MEAN_ANOMALY": 203.4977, "EPHEMERIS_TYPE": 0, "CLASSIFICATION_TYPE": "U", "NORAD_CAT_ID": 66849, "ELEMENT_SET_NO": 999, "REV_AT_EPOCH": 213, "BSTAR": -0.0078028871, "MEAN_MOTION_DOT": -0.01274821, "MEAN_MOTION_DDOT": 0}, "tle": {"line1": "1 66849U 25281B   25351.33339120 -.01274821  00000+0 -78029-2 0  9995", "line2": "2 66849  43.0004  94.1054 0001159 275.2127 203.4977 15.79262757  2130"}}, "geometry": {"type": "Point", "coordinates": [29.22886141404835, -39.543864372924084]}}, {"type": "Feature", "properties": {"norad_id": 66850, "name": "STARLINK-36105", "group": "last-30-days", "lat": -38.74276526103013, "lon": 32.16310393603237, "alt_km": 338.1933129646941, "timestamp": "2025-12-17T17:50:17.974368+00:00", "meta": {"OBJECT_NAME": "STARLINK-36105", "OBJECT_ID": "2025-281C", "EPOCH": "2025-12-17T08:00:04.999680", "MEAN_MOTION": 15.79158128, "ECCENTRICITY": 0.00014665, "INCLINATION": 43.0005, "RA_OF_ASC_NODE": 94.0991, "ARG_OF_PERICENTER": 273.2058, "MEAN_ANOMALY": 208.0853, "EPHEMERIS_TYPE": 0, "CLASSIFICATION_TYPE": "U", "NORAD_CAT_ID": 66850, "ELEMENT_SET_NO": 999, "REV_AT_EPOCH": 213, "BSTAR": -0.0079118623, "MEAN_MOTION_DOT": -0.01285188, "MEAN_MOTION_DDOT": 0}, "tle": {"line1": "1 66850U 25281C   25351.33339120 -.01285188  00000+0 -79119-2 0  9996", "line2": "2 66850  43.0005  94.0991 0001466 273.2058 208.0853 15.79158128  2134"}}, "geometry": {"type": "Point", "coordinates": [32.16310393603237, -38.74276526103013]}}, {"type": "Feature", "properties": {"norad_id": 66851, "name": "STARLINK-36094", "group": "last-30-days", "lat": -37.9615799286999, "lon": 34.738100576596096, "alt_km": 338.3827678632415, "timestamp": "2025-12-17T17:50:17.974381+00:00", "meta": {"OBJECT_NAME": "STARLINK-36094", "OBJECT_ID": "2025-281D", "EPOCH": "2025-12-17T06:00:00.999648", "MEAN_MOTION": 15.79324875, "ECCENTRICITY": 0.00013975, "INCLINATION": 43.0001, "RA_OF_ASC_NODE": 94.6011, "ARG_OF_PERICENTER": 273.9689, "MEAN_ANOMALY": 94.9752, "EPHEMERIS_TYPE": 0, "CLASSIFICATION_TYPE": "U", "NORAD_CAT_ID": 66851, "ELEMENT_SET_NO": 999, "REV_AT_EPOCH": 212, "BSTAR": -0.0077387738, "MEAN_MOTION_DOT": -0.01268927, "MEAN_MOTION_DDOT": 0}, "tle": {"line1": "1 66851U 25281D   25351.25001157 -.01268927  00000+0 -77388-2 0  9992", "line2": "2 66851  43.0001  94.6011 0001397 273.9689  94.9752 15.79324875  2123"}}, "geometry": {"type": "Point", "coordinates": [34.738100576596096, -37.9615799286999]}}, {"type": "Feature", "properties": {"norad_id": 66852, "name": "STARLINK-35992", "group": "last-30-days", "lat": -37.14048145269998, "lon": 37.21797959378215, "alt_km": 338.444108848581, "timestamp": "2025-12-17T17:50:17.974391+00:00", "meta": {"OBJECT_NAME": "STARLINK-35992", "OBJECT_ID": "2025-281E", "EPOCH": "2025-12-17T08:00:04.999680", "MEAN_MOTION": 15.79057703, "ECCENTRICITY": 0.0001474, "INCLINATION": 43.0006, "RA_OF_ASC_NODE": 94.0878, "ARG_OF_PERICENTER": 274.9715, "MEAN_ANOMALY": 210.7861, "EPHEMERIS_TYPE": 0, "CLASSIFICATION_TYPE": "U", "NORAD_CAT_ID": 66852, "ELEMENT_SET_NO": 999, "REV_AT_EPOCH": 213, "BSTAR": -0.0080307929, "MEAN_MOTION_DOT": -0.01320948, "MEAN_MOTION_DDOT": 0}, "tle": {"line1": "1 66852U 25281E   25351.33339120 -.01320948  00000+0 -80308-2 0  9994", "line2": "2 66852  43.0006  94.0878 0001474 274.9715 210.7861 15.79057703  2134"}}, "geometry": {"type": "Point", "coordinates": [37.21797959378215, -37.14048145269998]}}, {"type": "Feature", "properties": {"norad_id": 66853, "name": "STARLINK-35986", "group": "last-30-days", "lat": -36.13965697462516, "lon": 39.981371945434724, "alt_km": 338.7806061090232, "timestamp": "2025-12-17T17:50:17.974401+00:00", "meta": {"OBJECT_NAME": "STARLINK-35986", "OBJECT_ID": "2025-281F", "EPOCH": "2025-12-17T06:00:00.999648", "MEAN_MOTION": 15.79159565, "ECCENTRICITY": 0.00015225, "INCLINATION": 43.0004, "RA_OF_ASC_NODE": 94.5889, "ARG_OF_PERICENTER": 273.2338, "MEAN_ANOMALY": 100.5995, "EPHEMERIS_TYPE": 0, "CLASSIFICATION_TYPE": "U", "NORAD_CAT_ID": 66853, "ELEMENT_SET_NO": 999, "REV_AT_EPOCH": 212, "BSTAR": -0.007920359, "MEAN_MOTION_DOT": -0.01286509, "MEAN_MOTION_DDOT": 0}, "tle": {"line1": "1 66853U 25281F   25351.25001157 -.01286509  00000+0 -79204-2 0  9999", "line2": "2 66853  43.0004  94.5889 0001522 273.2338 100.5995 15.79159565  2129"}}, "geometry": {"type": "Point", "coordinates": [39.981371945434724, -36.13965697462516]}}, {"type": "Feature", "properties": {"norad_id": 66854, "name": "STARLINK-36087", "group": "last-30-days", "lat": -35.1084615125218, "lon": 42.59725988521396, "alt_km": 339.0610873935384, "timestamp": "2025-12-17T17:50:17.974413+00:00", "meta": {"OBJECT_NAME": "STARLINK-36087", "OBJECT_ID": "2025-281G", "EPOCH": "2025-12-17T06:00:00.999648", "MEAN_MOTION": 15.79049184, "ECCENTRICITY": 0.00016983, "INCLINATION": 43.0005, "RA_OF_ASC_NODE": 94.5823, "ARG_OF_PERICENTER": 267.5037, "MEAN_ANOMALY": 108.9038, "EPHEMERIS_TYPE": 0, "CLASSIFICATION_TYPE": "U", "NORAD_CAT_ID": 66854, "ELEMENT_SET_NO": 999, "REV_AT_EPOCH": 212, "BSTAR": -0.0080304794, "MEAN_MOTION_DOT": -0.01320565, "MEAN_MOTION_DDOT": 0}, "tle": {"line1": "1 66854U 25281G   25351.25001157 -.01320565  00000+0 -80305-2 0  9995", "line2": "2 66854  43.0005  94.5823 0001698 267.5037 108.9038 15.79049184  2120"}}, "geometry": {"type": "Point", "coordinates": [42.59725988521396, -35.1084615125218]}}, {"type": "Feature", "properties": {"norad_id": 66855, "name": "STARLINK-36090", "group": "last-30-days", "lat": -34.11039830695196, "lon": 44.94594320535692, "alt_km": 339.2110210907085, "timestamp": "2025-12-17T17:50:17.974423+00:00", "meta": {"OBJECT_NAME": "STARLINK-36090", "OBJECT_ID": "2025-281H", "EPOCH": "2025-12-17T06:00:00.999648", "MEAN_MOTION": 15.78983497, "ECCENTRICITY": 0.00016114, "INCLINATION": 43.0005, "RA_OF_ASC_NODE": 94.5765, "ARG_OF_PERICENTER": 273.9409, "MEAN_ANOMALY": 104.7761, "EPHEMERIS_TYPE": 0, "CLASSIFICATION_TYPE": "U", "NORAD_CAT_ID": 66855, "ELEMENT_SET_NO": 999, "REV_AT_EPOCH": 200, "BSTAR": -0.0081064172, "MEAN_MOTION_DOT": -0.01328106, "MEAN_MOTION_DDOT": 0}, "tle": {"line1": "1 66855U 25281H   25351.25001157 -.01328106  00000+0 -81064-2 0  9998", "line2": "2 66855  43.0005  94.5765 0001611 273.9409 104.7761 15.78983497  2002"}}, "geometry": {"type": "Point", "coordinates": [44.94594320535692, -34.11039830695196]}}]}